IRIDIUM 155             
1 43573U 18061E   20319.10284839  .00000108  00000-0  31415-4 0  9995
2 43573  86.4014 189.6963 0001972 101.1266 259.0152 14.34215839120800
IRIDIUM 154             
1 43574U 18061F   20319.08383442  .00000108  00000-0  31622-4 0  9993
2 43574  86.4016 189.7409 0001890  78.2155 281.9252 14.34217206120859
IRIDIUM 163             
1 43575U 18061G   20319.13456980  .00000108  00000-0  31634-4 0  9991
2 43575  86.4013 189.6971 0002560  80.6477 279.5008 14.34217225120830
IRIDIUM 156             
1 43576U 18061H   20319.10919752  .00000108  00000-0  31493-4 0  9993
2 43576  86.4013 189.7124 0002308  91.2506 268.8954 14.34216614120824
IRIDIUM 164             
1 43577U 18061J   20319.09016639  .00000109  00000-0  32004-4 0  9994
2 43577  86.4014 189.7297 0002046  78.9308 281.2118 14.34219031120869
IRIDIUM 159             
1 43578U 18061K   20319.12822740  .00000111  00000-0  32549-4 0  9994
2 43578  86.4014 189.6936 0001952  79.6879 280.4536 14.34217505120831
IRIDIUM 180             
1 43922U 19002A   20319.12769859  .00000015  00000-0 -18282-5 0  9997
2 43922  86.3944 126.5923 0002175  59.6842 300.4569 14.34216501 96440
IRIDIUM 176             
1 43923U 19002B   20319.02076909  .00000052  00000-0  42865-5 0  9998
2 43923  86.6078 126.6678 0002183  84.8104 275.3362 14.72248313 98935
IRIDIUM 168             
1 43924U 19002C   20318.98181267 -.00000009  00000-0 -10281-4 0  9997
2 43924  86.3948 126.6727 0001793  81.0570 279.0829 14.34216725 96405
IRIDIUM 173             
1 43925U 19002D   20319.03892303  .00000012  00000-0 -28586-5 0  9996
2 43925  86.3943 126.6207 0001898  84.5391 275.6021 14.34217450 96401
IRIDIUM 169             
1 43926U 19002E   20319.27725746  .00000058  00000-0  12321-4 0  9997
2 43926  86.4231 158.1025 0004043 197.3762 162.7299 14.38606249 96800
IRIDIUM 172             
1 43927U 19002F   20319.10233253  .00000009  00000-0 -40183-5 0  9992
2 43927  86.3943 126.5959 0001898  81.2522 278.8889 14.34217436 96418
IRIDIUM 175             
1 43928U 19002G   20319.42239268  .00000046  00000-0  33835-5 0  9996
2 43928  86.6061 126.3621 0003022  93.8053 266.3510 14.72248118 98986
IRIDIUM 171             
1 43929U 19002H   20319.01352532  .00000009  00000-0 -39510-5 0  9998
2 43929  86.3953 126.7125 0001771  82.7255 277.4142 14.34216041 96392
IRIDIUM 170             
1 43930U 19002J   20319.43476767  .00000056  00000-0  49646-5 0  9995
2 43930  86.6077 126.5014 0002495  84.9925 275.1577 14.72250054 99003
IRIDIUM 167             
1 43931U 19002K   20319.42580802  .00000006  00000-0 -49030-5 0  9994
2 43931  86.3944 126.4650 0001985  63.5164 296.6235 14.34217259 96453
